{"type": "FeatureCollection", "features": [{"type": "Feature", "properties": {"norad_id": 25590, "name": "COSMOS 2361", "group": "musson", "lat": -78.34130080723503, "lon": -166.12049573429937, "alt_km": 974.9105608045857, "timestamp": "2025-12-22T09:53:37.671425+00:00", "meta": {"OBJECT_NAME": "COSMOS 2361", "OBJECT_ID": "1998-076A", "EPOCH": "2025-12-21T22:16:17.008032", "MEAN_MOTION": 13.73218561, "ECCENTRICITY": 0.0030212, "INCLINATION": 82.9342, "RA_OF_ASC_NODE": 337.2902, "ARG_OF_PERICENTER": 238.9801, "MEAN_ANOMALY": 148.9011, "EPHEMERIS_TYPE": 0, "CLASSIFICATION_TYPE": "U", "NORAD_CAT_ID": 25590, "ELEMENT_SET_NO": 999, "REV_AT_EPOCH": 35237, "BSTAR": 4.3328e-05, "MEAN_MOTION_DOT": 5.5e-07, "MEAN_MOTION_DDOT": 0}, "tle": {"line1": "1 25590U 98076A   25355.92797463  .00000055  00000+0  43328-4 0  9991", "line2": "2 25590  82.9342 337.2902 0030212 238.9801 148.9011 13.73218561352377"}}, "geometry": {"type": "Point", "coordinates": [-166.12049573429937, -78.34130080723503]}}, {"type": "Feature", "properties": {"norad_id": 26818, "name": "COSMOS 2378", "group": "musson", "lat": 5.123596592063493, "lon": -6.809764239978737, "alt_km": 1011.0152333505193, "timestamp": "2025-12-22T09:53:37.671447+00:00", "meta": {"OBJECT_NAME": "COSMOS 2378", "OBJECT_ID": "2001-023A", "EPOCH": "2025-12-21T23:28:27.266304", "MEAN_MOTION": 13.74142721, "ECCENTRICITY": 0.0032977, "INCLINATION": 82.927, "RA_OF_ASC_NODE": 352.8742, "ARG_OF_PERICENTER": 178.9434, "MEAN_ANOMALY": 199.8985, "EPHEMERIS_TYPE": 0, "CLASSIFICATION_TYPE": "U", "NORAD_CAT_ID": 26818, "ELEMENT_SET_NO": 999, "REV_AT_EPOCH": 23050, "BSTAR": 2.6991e-05, "MEAN_MOTION_DOT": 4.1e-07, "MEAN_MOTION_DDOT": 0}, "tle": {"line1": "1 26818U 01023A   25355.97809336  .00000041  00000+0  26991-4 0  9991", "line2": "2 26818  82.9270 352.8742 0032977 178.9434 199.8985 13.74142721230501"}}, "geometry": {"type": "Point", "coordinates": [-6.809764239978737, 5.123596592063493]}}, {"type": "Feature", "properties": {"norad_id": 27436, "name": "COSMOS 2389", "group": "musson", "lat": -66.19419827294337, "lon": 136.1115260241444, "alt_km": 1017.5452798693159, "timestamp": "2025-12-22T09:53:37.671460+00:00", "meta": {"OBJECT_NAME": "COSMOS 2389", "OBJECT_ID": "2002-026A", "EPOCH": "2025-12-22T03:30:33.446016", "MEAN_MOTION": 13.75155593, "ECCENTRICITY": 0.0047239, "INCLINATION": 82.9511, "RA_OF_ASC_NODE": 300.0214, "ARG_OF_PERICENTER": 35.0971, "MEAN_ANOMALY": 336.1418, "EPHEMERIS_TYPE": 0, "CLASSIFICATION_TYPE": "U", "NORAD_CAT_ID": 27436, "ELEMENT_SET_NO": 999, "REV_AT_EPOCH": 18278, "BSTAR": 4.9184e-05, "MEAN_MOTION_DOT": 6.3e-07, "MEAN_MOTION_DDOT": 0}, "tle": {"line1": "1 27436U 02026A   25356.14622044  .00000063  00000+0  49184-4 0  9994", "line2": "2 27436  82.9511 300.0214 0047239  35.0971 336.1418 13.75155593182786"}}, "geometry": {"type": "Point", "coordinates": [136.1115260241444, -66.19419827294337]}}, {"type": "Feature", "properties": {"norad_id": 27818, "name": "COSMOS 2398", "group": "musson", "lat": 74.38021857750391, "lon": 59.29336251921662, "alt_km": 960.9917859792076, "timestamp": "2025-12-22T09:53:37.671472+00:00", "meta": {"OBJECT_NAME": "COSMOS 2398", "OBJECT_ID": "2003-023A", "EPOCH": "2025-12-22T02:56:50.416800", "MEAN_MOTION": 13.72386646, "ECCENTRICITY": 0.0032715, "INCLINATION": 82.9484, "RA_OF_ASC_NODE": 265.7841, "ARG_OF_PERICENTER": 86.8011, "MEAN_ANOMALY": 27.849, "EPHEMERIS_TYPE": 0, "CLASSIFICATION_TYPE": "U", "NORAD_CAT_ID": 27818, "ELEMENT_SET_NO": 999, "REV_AT_EPOCH": 12945, "BSTAR": 6.6192e-05, "MEAN_MOTION_DOT": 7.6e-07, "MEAN_MOTION_DDOT": 0}, "tle": {"line1": "1 27818U 03023A   25356.12280575  .00000076  00000+0  66192-4 0  9995", "line2": "2 27818  82.9484 265.7841 0032715  86.8011  27.8490 13.72386646129455"}}, "geometry": {"type": "Point", "coordinates": [59.29336251921662, 74.38021857750391]}}, {"type": "Feature", "properties": {"norad_id": 28380, "name": "COSMOS 2407", "group": "musson", "lat": 74.7713900067604, "lon": -127.27265385489714, "alt_km": 950.2059070628611, "timestamp": "2025-12-22T09:53:37.671482+00:00", "meta": {"OBJECT_NAME": "COSMOS 2407", "OBJECT_ID": "2004-028A", "EPOCH": "2025-12-22T03:07:00.984000", "MEAN_MOTION": 13.76314712, "ECCENTRICITY": 0.0039896, "INCLINATION": 82.9597, "RA_OF_ASC_NODE": 205.9402, "ARG_OF_PERICENTER": 29.2204, "MEAN_ANOMALY": 88.6556, "EPHEMERIS_TYPE": 0, "CLASSIFICATION_TYPE": "U", "NORAD_CAT_ID": 28380, "ELEMENT_SET_NO": 999, "REV_AT_EPOCH": 7552, "BSTAR": 4.6818e-05, "MEAN_MOTION_DOT": 6.1e-07, "MEAN_MOTION_DDOT": 0}, "tle": {"line1": "1 28380U 04028A   25356.12987250  .00000061  00000+0  46818-4 0  9997", "line2": "2 28380  82.9597 205.9402 0039896  29.2204  88.6556 13.76314712 75521"}}, "geometry": {"type": "Point", "coordinates": [-127.27265385489714, 74.7713900067604]}}, {"type": "Feature", "properties": {"norad_id": 28521, "name": "COSMOS 2414", "group": "musson", "lat": 21.873339192913736, "lon": -179.8063243526825, "alt_km": 935.9099480104178, "timestamp": "2025-12-22T09:53:37.671493+00:00", "meta": {"OBJECT_NAME": "COSMOS 2414", "OBJECT_ID": "2005-002A", "EPOCH": "2025-12-21T23:24:23.087808", "MEAN_MOTION": 13.87904241, "ECCENTRICITY": 0.0041326, "INCLINATION": 82.9488, "RA_OF_ASC_NODE": 177.6761, "ARG_OF_PERICENTER": 114.0366, "MEAN_ANOMALY": 246.513, "EPHEMERIS_TYPE": 0, "CLASSIFICATION_TYPE": "U", "NORAD_CAT_ID": 28521, "ELEMENT_SET_NO": 999, "REV_AT_EPOCH": 5923, "BSTAR": 5.0905e-05, "MEAN_MOTION_DOT": 7.7e-07, "MEAN_MOTION_DDOT": 0}, "tle": {"line1": "1 28521U 05002A   25355.97526722  .00000077  00000+0  50905-4 0  9991", "line2": "2 28521  82.9488 177.6761 0041326 114.0366 246.5130 13.87904241 59230"}}, "geometry": {"type": "Point", "coordinates": [-179.8063243526825, 21.873339192913736]}}, {"type": "Feature", "properties": {"norad_id": 32052, "name": "COSMOS 2429", "group": "musson", "lat": 72.07365737849183, "lon": -1.436220430127989, "alt_km": 960.8546079939688, "timestamp": "2025-12-22T09:53:37.671504+00:00", "meta": {"OBJECT_NAME": "COSMOS 2429", "OBJECT_ID": "2007-038A", "EPOCH": "2025-12-22T04:18:05.224032", "MEAN_MOTION": 13.75150313, "ECCENTRICITY": 0.0038693, "INCLINATION": 82.9807, "RA_OF_ASC_NODE": 336.3497, "ARG_OF_PERICENTER": 11.929, "MEAN_ANOMALY": 348.2774, "EPHEMERIS_TYPE": 0, "CLASSIFICATION_TYPE": "U", "NORAD_CAT_ID": 32052, "ELEMENT_SET_NO": 999, "REV_AT_EPOCH": 91732, "BSTAR": 3.9121e-05, "MEAN_MOTION_DOT": 5.3e-07, "MEAN_MOTION_DDOT": 0}, "tle": {"line1": "1 32052U 07038A   25356.17922713  .00000053  00000+0  39121-4 0  9990", "line2": "2 32052  82.9807 336.3497 0038693  11.9290 348.2774 13.75150313917320"}}, "geometry": {"type": "Point", "coordinates": [-1.436220430127989, 72.07365737849183]}}, {"type": "Feature", "properties": {"norad_id": 35635, "name": "COSMOS 2454", "group": "musson", "lat": 36.09786492388304, "lon": -23.860135907818883, "alt_km": 927.8041617422923, "timestamp": "2025-12-22T09:53:37.671514+00:00", "meta": {"OBJECT_NAME": "COSMOS 2454", "OBJECT_ID": "2009-039A", "EPOCH": "2025-12-21T23:24:56.268864", "MEAN_MOTION": 13.89929729, "ECCENTRICITY": 0.0020165, "INCLINATION": 82.9557, "RA_OF_ASC_NODE": 161.6435, "ARG_OF_PERICENTER": 48.9508, "MEAN_ANOMALY": 70.9765, "EPHEMERIS_TYPE": 0, "CLASSIFICATION_TYPE": "U", "NORAD_CAT_ID": 35635, "ELEMENT_SET_NO": 999, "REV_AT_EPOCH": 83278, "BSTAR": 3.7232e-05, "MEAN_MOTION_DOT": 6.2e-07, "MEAN_MOTION_DDOT": 0}, "tle": {"line1": "1 35635U 09039A   25355.97565126  .00000062  00000+0  37232-4 0  9992", "line2": "2 35635  82.9557 161.6435 0020165  48.9508  70.9765 13.89929729832785"}}, "geometry": {"type": "Point", "coordinates": [-23.860135907818883, 36.09786492388304]}}, {"type": "Feature", "properties": {"norad_id": 36519, "name": "COSMOS 2463", "group": "musson", "lat": -82.64636135878247, "lon": -87.17275428392472, "alt_km": 975.6323367110645, "timestamp": "2025-12-22T09:53:37.671524+00:00", "meta": {"OBJECT_NAME": "COSMOS 2463", "OBJECT_ID": "2010-017A", "EPOCH": "2025-12-22T01:40:21.877824", "MEAN_MOTION": 13.71649945, "ECCENTRICITY": 0.0034761, "INCLINATION": 82.9604, "RA_OF_ASC_NODE": 19.8561, "ARG_OF_PERICENTER": 261.2168, "MEAN_ANOMALY": 116.098, "EPHEMERIS_TYPE": 0, "CLASSIFICATION_TYPE": "U", "NORAD_CAT_ID": 36519, "ELEMENT_SET_NO": 999, "REV_AT_EPOCH": 78365, "BSTAR": 3.9924e-05, "MEAN_MOTION_DOT": 5.1e-07, "MEAN_MOTION_DDOT": 0}, "tle": {"line1": "1 36519U 10017A   25356.06969766  .00000051  00000+0  39924-4 0  9999", "line2": "2 36519  82.9604  19.8561 0034761 261.2168 116.0980 13.71649945783655"}}, "geometry": {"type": "Point", "coordinates": [-87.17275428392472, -82.64636135878247]}}]}